start=new Date('2022-04-06T00:00:00.000Z').valueOf();
sats=[{"APOAPSIS":"548.398","COUNTRY_CODE":"US","FILE":"3389912","MEAN_ELEMENT_THEORY":"SGP4","OBJECT_TYPE":"PAYLOAD","NORAD_CAT_ID":"46337","LAUNCH_DATE":"2020-09-03","PERIAPSIS":"546.002","EPOCH":"2022-04-05T21:08:39.823872","RA_OF_ASC_NODE":"313.2314","INCLINATION":"53.0558","TLE_LINE2":"2 46337  53.0558 313.2314 0001730  51.7381 308.3764 15.06404535 88486","TLE_LINE1":"1 46337U 20062N   22095.88101648  .00003794  00000-0  27344-3 0  9993","MEAN_MOTION_DDOT":"0.0000000000000","CENTER_NAME":"EARTH","ELEMENT_SET_NO":"999","BSTAR":"0.00027344000000","CLASSIFICATION_TYPE":"U","EPHEMERIS_TYPE":"0","REV_AT_EPOCH":"8848","RCS_SIZE":"LARGE","TIME_SYSTEM":"UTC","MEAN_MOTION_DOT":"0.00003794","OBJECT_NAME":"STARLINK-1750","DECAY_DATE":null,"OBJECT_ID":"2020-062N","SITE":"AFETR","SEMIMAJOR_AXIS":"6925.335","ECCENTRICITY":"0.00017300","PERIOD":"95.592","MEAN_ANOMALY":"308.3764","ARG_OF_PERICENTER":"51.7381","REF_FRAME":"TEME","GP_ID":"200542600","MEAN_MOTION":"15.06404535"},{"OBJECT_TYPE":"PAYLOAD","NORAD_CAT_ID":"46338","LAUNCH_DATE":"2020-09-03","PERIAPSIS":"546.050","APOAPSIS":"548.394","COUNTRY_CODE":"US","MEAN_ELEMENT_THEORY":"SGP4","FILE":"3389912","INCLINATION":"53.0556","TLE_LINE2":"2 46338  53.0556 333.0100 0001693  47.4339 312.6793 15.06397250 88206","MEAN_MOTION_DDOT":"0.0000000000000","TLE_LINE1":"1 46338U 20062P   22095.93077197  .00012480  00000-0  85529-3 0  9992","EPOCH":"2022-04-05T22:20:18.698208","RA_OF_ASC_NODE":"333.0100","CLASSIFICATION_TYPE":"U","REV_AT_EPOCH":"8820","EPHEMERIS_TYPE":"0","RCS_SIZE":"LARGE","TIME_SYSTEM":"UTC","MEAN_MOTION_DOT":"0.00012480","CENTER_NAME":"EARTH","ELEMENT_SET_NO":"999","BSTAR":"0.00085529000000","MEAN_ANOMALY":"312.6793","PERIOD":"95.592","ARG_OF_PERICENTER":"47.4339","REF_FRAME":"TEME","GP_ID":"200540849","MEAN_MOTION":"15.06397250","OBJECT_NAME":"STARLINK-1752","DECAY_DATE":null,"OBJECT_ID":"2020-062P","SITE":"AFETR","SEMIMAJOR_AXIS":"6925.357","ECCENTRICITY":"0.00016930"},{"APOAPSIS":"548.151","COUNTRY_CODE":"US","FILE":"3389912","MEAN_ELEMENT_THEORY":"SGP4","OBJECT_TYPE":"PAYLOAD","NORAD_CAT_ID":"46340","PERIAPSIS":"546.266","LAUNCH_DATE":"2020-09-03","EPOCH":"2022-04-05T21:41:48.497856","RA_OF_ASC_NODE":"333.1292","INCLINATION":"53.0575","TLE_LINE2":"2 46340  53.0575 333.1292 0001361  65.1477 294.9653 15.06401567 88209","MEAN_MOTION_DDOT":"0.0000000000000","TLE_LINE1":"1 46340U 20062R   22095.90403354  .00004613  00000-0  32833-3 0  9999","CENTER_NAME":"EARTH","ELEMENT_SET_NO":"999","BSTAR":"0.00032833000000","CLASSIFICATION_TYPE":"U","REV_AT_EPOCH":"8820","EPHEMERIS_TYPE":"0","RCS_SIZE":"LARGE","TIME_SYSTEM":"UTC","MEAN_MOTION_DOT":"0.00004613","OBJECT_NAME":"STARLINK-1759","DECAY_DATE":null,"OBJECT_ID":"2020-062R","SITE":"AFETR","SEMIMAJOR_AXIS":"6925.344","ECCENTRICITY":"0.00013610","PERIOD":"95.592","MEAN_ANOMALY":"294.9653","ARG_OF_PERICENTER":"65.1477","REF_FRAME":"TEME","GP_ID":"200541099","MEAN_MOTION":"15.06401567"},{"REF_FRAME":"TEME","ARG_OF_PERICENTER":"65.7424","PERIOD":"95.593","MEAN_ANOMALY":"294.3714","MEAN_MOTION":"15.06390669","GP_ID":"200516363","OBJECT_NAME":"STARLINK-1760","DECAY_DATE":null,"ECCENTRICITY":"0.00014190","OBJECT_ID":"2020-062S","SEMIMAJOR_AXIS":"6925.377","SITE":"AFETR","CLASSIFICATION_TYPE":"U","EPHEMERIS_TYPE":"0","REV_AT_EPOCH":"8866","MEAN_MOTION_DOT":"0.00002430","RCS_SIZE":"LARGE","TIME_SYSTEM":"UTC","BSTAR":"0.00018204000000","CENTER_NAME":"EARTH","ELEMENT_SET_NO":"999","TLE_LINE1":"1 46341U 20062S   22095.84415660  .00002430  00000-0  18204-3 0  9997","TLE_LINE2":"2 46341  53.0563 313.3993 0001419  65.7424 294.3714 15.06390669 88669","MEAN_MOTION_DDOT":"0.0000000000000","INCLINATION":"53.0563","RA_OF_ASC_NODE":"313.3993","EPOCH":"2022-04-05T20:15:35.130240","NORAD_CAT_ID":"46341","OBJECT_TYPE":"PAYLOAD","LAUNCH_DATE":"2020-09-03","PERIAPSIS":"546.259","APOAPSIS":"548.225","MEAN_ELEMENT_THEORY":"SGP4","FILE":"3389642","COUNTRY_CODE":"US"},{"EPOCH":"2022-04-05T21:21:56.278944","RA_OF_ASC_NODE":"333.1823","INCLINATION":"53.0539","MEAN_MOTION_DDOT":"0.0000000000000","TLE_LINE2":"2 46342  53.0539 333.1823 0001647  57.7735 302.3413 15.06392209 88202","TLE_LINE1":"1 46342U 20062T   22095.89023471  .00003632  00000-0  26263-3 0  9997","APOAPSIS":"548.378","COUNTRY_CODE":"US","FILE":"3389912","MEAN_ELEMENT_THEORY":"SGP4","OBJECT_TYPE":"PAYLOAD","NORAD_CAT_ID":"46342","PERIAPSIS":"546.097","LAUNCH_DATE":"2020-09-03","OBJECT_NAME":"STARLINK-1762","DECAY_DATE":null,"OBJECT_ID":"2020-062T","SITE":"AFETR","SEMIMAJOR_AXIS":"6925.372","ECCENTRICITY":"0.00016470","PERIOD":"95.593","MEAN_ANOMALY":"302.3413","ARG_OF_PERICENTER":"57.7735","REF_FRAME":"TEME","GP_ID":"200542101","MEAN_MOTION":"15.06392209","CENTER_NAME":"EARTH","ELEMENT_SET_NO":"999","BSTAR":"0.00026263000000","CLASSIFICATION_TYPE":"U","EPHEMERIS_TYPE":"0","REV_AT_EPOCH":"8820","RCS_SIZE":"LARGE","TIME_SYSTEM":"UTC","MEAN_MOTION_DOT":"0.00003632"},{"OBJECT_NAME":"STARLINK-1764","DECAY_DATE":null,"ECCENTRICITY":"0.00015580","OBJECT_ID":"2020-062U","SEMIMAJOR_AXIS":"6925.310","SITE":"AFETR","REF_FRAME":"TEME","ARG_OF_PERICENTER":"62.7955","PERIOD":"95.591","MEAN_ANOMALY":"297.3193","MEAN_MOTION":"15.06412559","GP_ID":"200516372","BSTAR":"0.00056250000000","CENTER_NAME":"EARTH","ELEMENT_SET_NO":"999","CLASSIFICATION_TYPE":"U","REV_AT_EPOCH":"8866","EPHEMERIS_TYPE":"0","MEAN_MOTION_DOT":"0.00008110","RCS_SIZE":"LARGE","TIME_SYSTEM":"UTC","RA_OF_ASC_NODE":"313.2294","EPOCH":"2022-04-05T21:13:58.423008","TLE_LINE2":"2 46343  53.0550 313.2294 0001558  62.7955 297.3193 15.06412559 88667","MEAN_MOTION_DDOT":"0.0000000000000","TLE_LINE1":"1 46343U 20062U   22095.88470397  .00008110  00000-0  56250-3 0  9995","INCLINATION":"53.0550","APOAPSIS":"548.254","FILE":"3389661","MEAN_ELEMENT_THEORY":"SGP4","COUNTRY_CODE":"US","NORAD_CAT_ID":"46343","OBJECT_TYPE":"PAYLOAD","PERIAPSIS":"546.096","LAUNCH_DATE":"2020-09-03"},{"REV_AT_EPOCH":"8848","EPHEMERIS_TYPE":"0","CLASSIFICATION_TYPE":"U","MEAN_MOTION_DOT":"0.00001076","TIME_SYSTEM":"UTC","RCS_SIZE":"LARGE","BSTAR":"0.00009109600000","ELEMENT_SET_NO":"999","CENTER_NAME":"EARTH","REF_FRAME":"TEME","PERIOD":"95.592","ARG_OF_PERICENTER":"50.6878","MEAN_ANOMALY":"309.4258","MEAN_MOTION":"15.06400756","GP_ID":"200541599","DECAY_DATE":null,"OBJECT_NAME":"STARLINK-1765","ECCENTRICITY":"0.00016630","SEMIMAJOR_AXIS":"6925.346","SITE":"AFETR","OBJECT_ID":"2020-062V","NORAD_CAT_ID":"46344","OBJECT_TYPE":"PAYLOAD","LAUNCH_DATE":"2020-09-03","PERIAPSIS":"546.060","APOAPSIS":"548.363","MEAN_ELEMENT_THEORY":"SGP4","FILE":"3389912","COUNTRY_CODE":"US","TLE_LINE1":"1 46344U 20062V   22095.90313227  .00001076  00000-0  91096-4 0  9999","TLE_LINE2":"2 46344  53.0557 313.1357 0001663  50.6878 309.4258 15.06400756 88484","MEAN_MOTION_DDOT":"0.0000000000000","INCLINATION":"53.0557","RA_OF_ASC_NODE":"313.1357","EPOCH":"2022-04-05T21:40:30.628128"},{"ECCENTRICITY":"0.00013760","OBJECT_ID":"2020-062W","SITE":"AFETR","SEMIMAJOR_AXIS":"6925.382","OBJECT_NAME":"STARLINK-1767","DECAY_DATE":null,"MEAN_MOTION":"15.06388954","GP_ID":"200541851","REF_FRAME":"TEME","PERIOD":"95.593","MEAN_ANOMALY":"291.5074","ARG_OF_PERICENTER":"68.6062","BSTAR":"0.00023350000000","CENTER_NAME":"EARTH","ELEMENT_SET_NO":"999","MEAN_MOTION_DOT":"0.00003197","RCS_SIZE":"LARGE","TIME_SYSTEM":"UTC","CLASSIFICATION_TYPE":"U","REV_AT_EPOCH":"8820","EPHEMERIS_TYPE":"0","RA_OF_ASC_NODE":"333.1159","EPOCH":"2022-04-05T21:43:09.808032","TLE_LINE1":"1 46345U 20062W   22095.90497463  .00003197  00000-0  23350-3 0  9998","TLE_LINE2":"2 46345  53.0567 333.1159 0001376  68.6062 291.5074 15.06388954 88205","MEAN_MOTION_DDOT":"0.0000000000000","INCLINATION":"53.0567","MEAN_ELEMENT_THEORY":"SGP4","FILE":"3389912","COUNTRY_CODE":"US","APOAPSIS":"548.200","PERIAPSIS":"546.294","LAUNCH_DATE":"2020-09-03","NORAD_CAT_ID":"46345","OBJECT_TYPE":"PAYLOAD"},{"RA_OF_ASC_NODE":"192.0715","EPOCH":"2022-04-05T15:32:52.187136","TLE_LINE2":"2 46346  53.0544 192.0715 0003731   5.0285 355.0753 15.34270437 90176","TLE_LINE1":"1 46346U 20062X   22095.64782624  .00029230  00000-0  87629-3 0  9991","MEAN_MOTION_DDOT":"0.0000000000000","INCLINATION":"53.0544","APOAPSIS":"465.643","FILE":"3389912","MEAN_ELEMENT_THEORY":"SGP4","COUNTRY_CODE":"US","NORAD_CAT_ID":"46346","OBJECT_TYPE":"PAYLOAD","PERIAPSIS":"460.538","LAUNCH_DATE":"2020-09-03","DECAY_DATE":null,"OBJECT_NAME":"STARLINK-1546","ECCENTRICITY":"0.00037310","SITE":"AFETR","SEMIMAJOR_AXIS":"6841.225","OBJECT_ID":"2020-062X","REF_FRAME":"TEME","PERIOD":"93.856","ARG_OF_PERICENTER":"5.0285","MEAN_ANOMALY":"355.0753","MEAN_MOTION":"15.34270437","GP_ID":"200542601","BSTAR":"0.00087629000000","ELEMENT_SET_NO":"999","CENTER_NAME":"EARTH","EPHEMERIS_TYPE":"0","REV_AT_EPOCH":"9017","CLASSIFICATION_TYPE":"U","MEAN_MOTION_DOT":"0.00029230","TIME_SYSTEM":"UTC","RCS_SIZE":"LARGE"},{"PERIAPSIS":"546.145","LAUNCH_DATE":"2020-09-03","OBJECT_TYPE":"PAYLOAD","NORAD_CAT_ID":"46347","COUNTRY_CODE":"US","MEAN_ELEMENT_THEORY":"SGP4","FILE":"3389912","APOAPSIS":"548.339","INCLINATION":"53.0552","MEAN_MOTION_DDOT":"0.0000000000000","TLE_LINE2":"2 46347  53.0552 288.3045 0001584  54.7973 305.3164 15.06390660 88812","TLE_LINE1":"1 46347U 20062Y   22095.86304952  .00002229  00000-0  16853-3 0  9990","EPOCH":"2022-04-05T20:42:47.478528","RA_OF_ASC_NODE":"288.3045","TIME_SYSTEM":"UTC","RCS_SIZE":"LARGE","MEAN_MOTION_DOT":"0.00002229","EPHEMERIS_TYPE":"0","REV_AT_EPOCH":"8881","CLASSIFICATION_TYPE":"U","ELEMENT_SET_NO":"999","CENTER_NAME":"EARTH","BSTAR":"0.00016853000000","GP_ID":"200540850","MEAN_MOTION":"15.06390660","PERIOD":"95.593","ARG_OF_PERICENTER":"54.7973","MEAN_ANOMALY":"305.3164","REF_FRAME":"TEME","SITE":"AFETR","SEMIMAJOR_AXIS":"6925.377","OBJECT_ID":"2020-062Y","ECCENTRICITY":"0.00015840","DECAY_DATE":null,"OBJECT_NAME":"STARLINK-1547"}];
